{
  "features": [
    {
      "geometry": {
        "coordinates": [
          [
            [
              -81.45686519281482,
              25.89142440917468
            ],
            [
              -81.40815648123586,
              25.891592089878202
            ],
            [
              -81.4079146200021,
              25.8401854255902
            ],
            [
              -81.3998975279179,
              25.84013546896445
            ],
            [
              -81.39990119115134,
              25.832868597866728
            ],
            [
              -81.35929121167051,
              25.832814343654274
            ],
            [
              -81.35902851348162,
              25.862959288760408
            ],
            [
              -81.32537750885103,
              25.862604389049707
            ],
            [
              -81.26908110468301,
              25.8108969748249
            ],
            [
              -81.33668339566132,
              25.71812773906639
            ],
            [
              -81.37439244497499,
              25.696339765310476
            ],
            [
              -81.39230264516036,
              25.715383488992938
            ],
            [
              -81.4567290716411,
              25.768031615914996
            ],
            [
              -81.52047876174694,
              25.818066202401912
            ],
            [
              -81.52054849737927,
              25.832671800076046
            ],
            [
              -81.5046835240732,
              25.832815743868494
            ],
            [
              -81.50473351737355,
              25.847552352321692
            ],
            [
              -81.48877091798407,
              25.84757304402707
            ],
            [
              -81.48898137167873,
              25.862130770840498
            ],
            [
              -81.47269990465155,
              25.862225296143404
            ],
            [
              -81.47290060900379,
              25.876697277600883
            ],
            [
              -81.45683457956613,
              25.876807401764847
            ],
            [
              -81.45686519281482,
              25.89142440917468
            ]
          ]
        ],
        "type": "Polygon"
      },
      "properties": {
        "area_code": "6N",
        "area_name": "Northern Ten Thousand Islands",
        "broad_region": "Gulf Coast",
        "source_crs": "EPSG:26917"
      },
      "type": "Feature"
    },
    {
      "geometry": {
        "coordinates": [
          [
            [
              -81.33668339566132,
              25.71812773906639
            ],
            [
              -81.26908110468301,
              25.8108969748249
            ],
            [
              -81.12629850653362,
              25.679561122105536
            ],
            [
              -81.26321438936883,
              25.57344832647301
            ],
            [
              -81.37439244497499,
              25.696339765310476
            ],
            [
              -81.33668339566132,
              25.71812773906639
            ]
          ]
        ],
        "type": "Polygon"
      },
      "properties": {
        "area_code": "6C",
        "area_name": "Central Ten Thousand Islands",
        "broad_region": "Gulf Coast",
        "source_crs": "EPSG:26917"
      },
      "type": "Feature"
    },
    {
      "geometry": {
        "coordinates": [
          [
            [
              -81.12629850653362,
              25.679561122105536
            ],
            [
              -81.05769207787426,
              25.616301527835873
            ],
            [
              -80.94153272318248,
              25.553419939888972
            ],
            [
              -81.23007337455302,
              25.50061657720571
            ],
            [
              -81.26320276715943,
              25.573264462079308
            ],
            [
              -81.12629850653362,
              25.679561122105536
            ]
          ]
        ],
        "type": "Polygon"
      },
      "properties": {
        "area_code": "6S",
        "area_name": "Southern Ten Thousand Islands",
        "broad_region": "Gulf Coast",
        "source_crs": "EPSG:26917"
      },
      "type": "Feature"
    },
    {
      "geometry": {
        "coordinates": [
          [
            [
              [
                -80.94154551635154,
                25.553417624180764
              ],
              [
                -80.81958916049285,
                25.483115980720008
              ],
              [
                -80.81906948161196,
                25.431624223126576
              ],
              [
                -80.91032516855326,
                25.418452447254506
              ],
              [
                -81.09363562033472,
                25.282111527230974
              ],
              [
                -81.11158649102026,
                25.319033800588613
              ],
              [
                -81.18383780341495,
                25.310511471288656
              ],
              [
                -81.17803664457472,
                25.33212295485737
              ],
              [
                -81.2032707940072,
                25.438279913003356
              ],
              [
                -81.23028654974087,
                25.500635732792908
              ],
              [
                -80.94154551635154,
                25.553417624180764
              ]
            ]
          ],
          [
            [
              [
                -80.94154551635154,
                25.553417624180764
              ],
              [
                -80.94147699381902,
                25.55350570654067
              ],
              [
                -80.94153272318248,
                25.553419939888972
              ],
              [
                -80.94154551635154,
                25.553417624180764
              ]
            ]
          ]
        ],
        "type": "MultiPolygon"
      },
      "properties": {
        "area_code": "5",
        "area_name": "Shark River",
        "broad_region": "Gulf Coast",
        "source_crs": "EPSG:26917"
      },
      "type": "Feature"
    },
    {
      "geometry": {
        "coordinates": [
          [
            [
              -80.90914992663826,
              25.41914579164563
            ],
            [
              -80.81913754322758,
              25.431472426343202
            ],
            [
              -80.82369995596085,
              25.258581273890208
            ],
            [
              -80.89515167312315,
              25.192244782934168
            ],
            [
              -80.89567086878526,
              25.128187936651276
            ],
            [
              -80.95534601134213,
              25.127533629230367
            ],
            [
              -80.95571080114166,
              25.19683336653661
            ],
            [
              -81.06700895896903,
              25.22816496419066
            ],
            [
              -81.09366408662147,
              25.28228901738352
            ],
            [
              -80.90914992663826,
              25.41914579164563
            ]
          ]
        ],
        "type": "Polygon"
      },
      "properties": {
        "area_code": "4",
        "area_name": "Whitewater Bay",
        "broad_region": "Whitewater Bay",
        "source_crs": "EPSG:26917"
      },
      "type": "Feature"
    },
    {
      "geometry": {
        "coordinates": [
          [
            [
              -81.18391806933302,
              25.310437333370373
            ],
            [
              -81.11158649102026,
              25.319033800588613
            ],
            [
              -81.06739788721619,
              25.22810558945763
            ],
            [
              -81.04537266386758,
              25.221136324320472
            ],
            [
              -81.0460005037745,
              25.131952859124212
            ],
            [
              -81.08471582755897,
              25.08790813849219
            ],
            [
              -81.16294905998606,
              25.157637212345293
            ],
            [
              -81.20587100358198,
              25.22865910964975
            ],
            [
              -81.18391806933302,
              25.310437333370373
            ]
          ]
        ],
        "type": "Polygon"
      },
      "properties": {
        "area_code": "3W",
        "area_name": "Western Cape Sable",
        "broad_region": "Florida Bay / Cape Sable",
        "source_crs": "EPSG:26917"
      },
      "type": "Feature"
    },
    {
      "geometry": {
        "coordinates": [
          [
            [
              -80.69951832209048,
              25.263615491896683
            ],
            [
              -80.44430691910868,
              25.284832787654
            ],
            [
              -80.43082710008643,
              25.2237394765777
            ],
            [
              -80.41729706790339,
              25.197915825133283
            ],
            [
              -80.415010950253,
              25.196125515977418
            ],
            [
              -80.39302137374638,
              25.187575251641515
            ],
            [
              -80.38868547092572,
              25.184599890482556
            ],
            [
              -80.39046085215976,
              25.179708145591405
            ],
            [
              -80.39362968844925,
              25.176833645306427
            ],
            [
              -80.41790147687985,
              25.147985839760505
            ],
            [
              -80.42488056777424,
              25.143244951625885
            ],
            [
              -80.42584983048731,
              25.140575645476734
            ],
            [
              -80.42530375005788,
              25.135236415556196
            ],
            [
              -80.42261651434283,
              25.130886739577104
            ],
            [
              -80.42282676171929,
              25.128498954408407
            ],
            [
              -80.42675807983662,
              25.12652974600738
            ],
            [
              -80.44019065070292,
              25.128603993869003
            ],
            [
              -80.4431968570354,
              25.128236039837947
            ],
            [
              -80.44674949611571,
              25.123411172834448
            ],
            [
              -80.4470079043127,
              25.120822591644966
            ],
            [
              -80.4677667069329,
              25.092795057700446
            ],
            [
              -80.46805080293493,
              25.090739327904753
            ],
            [
              -80.46969782842052,
              25.088315965465473
            ],
            [
              -80.7348095243097,
              25.089026220492304
            ],
            [
              -80.69791653089916,
              25.161629738404933
            ],
            [
              -80.69951832209048,
              25.263615491896683
            ]
          ]
        ],
        "type": "Polygon"
      },
      "properties": {
        "area_code": "1E",
        "area_name": "Northeastern Florida Bay",
        "broad_region": "Florida Bay / Cape Sable",
        "source_crs": "EPSG:26917"
      },
      "type": "Feature"
    },
    {
      "geometry": {
        "coordinates": [
          [
            [
              -80.82373737825469,
              25.25836133832825
            ],
            [
              -80.7986159031913,
              25.256874621931377
            ],
            [
              -80.69951605558899,
              25.263662312485145
            ],
            [
              -80.69791653089916,
              25.161629738404933
            ],
            [
              -80.7348095243097,
              25.089026220492304
            ],
            [
              -80.95407786194441,
              25.089967814350203
            ],
            [
              -80.9534385132164,
              25.127880767479233
            ],
            [
              -80.89511719738076,
              25.128942294574156
            ],
            [
              -80.8950865815764,
              25.192191798007762
            ],
            [
              -80.82373737825469,
              25.25836133832825
            ]
          ]
        ],
        "type": "Polygon"
      },
      "properties": {
        "area_code": "1W",
        "area_name": "Northwestern Florida Bay",
        "broad_region": "Florida Bay / Cape Sable",
        "source_crs": "EPSG:26917"
      },
      "type": "Feature"
    },
    {
      "geometry": {
        "coordinates": [
          [
            [
              -80.9496957462245,
              24.927152178584837
            ],
            [
              -80.97938070510162,
              24.957872287756246
            ],
            [
              -81.01159185503491,
              24.988349929712115
            ],
            [
              -81.08506368603821,
              25.07204199502449
            ],
            [
              -81.08533237449157,
              25.087748714399904
            ],
            [
              -81.04599850410936,
              25.129103564674914
            ],
            [
              -81.04514879610429,
              25.2207306902881
            ],
            [
              -80.95570634050424,
              25.19677124802698
            ],
            [
              -80.9496957462245,
              24.927152178584837
            ]
          ]
        ],
        "type": "Polygon"
      },
      "properties": {
        "area_code": "3E",
        "area_name": "Eastern Cape Sable",
        "broad_region": "Florida Bay / Cape Sable",
        "source_crs": "EPSG:26917"
      },
      "type": "Feature"
    },
    {
      "geometry": {
        "coordinates": [
          [
            [
              -80.46969782842052,
              25.088315965465473
            ],
            [
              -80.47466181612653,
              25.081296425078072
            ],
            [
              -80.49979218835534,
              25.067584303658624
            ],
            [
              -80.52175206843377,
              25.05821488701569
            ],
            [
              -80.51775750593058,
              25.037259480158927
            ],
            [
              -80.51798355069182,
              25.033954925203076
            ],
            [
              -80.51883202537906,
              25.032598523369465
            ],
            [
              -80.51951035805816,
              25.031654736641386
            ],
            [
              -80.52468396526639,
              25.029709401301854
            ],
            [
              -80.53496334856052,
              25.02347445119671
            ],
            [
              -80.53780825897876,
              25.022898556234903
            ],
            [
              -80.54873815640502,
              25.016806891223833
            ],
            [
              -80.55782010834513,
              25.00754809629383
            ],
            [
              -80.56012303518251,
              25.003371336473187
            ],
            [
              -80.56085811915297,
              24.99904316466053
            ],
            [
              -80.56479530848786,
              24.996223503125186
            ],
            [
              -80.63471844920184,
              24.965518340808554
            ],
            [
              -80.658510047552,
              24.943001490098183
            ],
            [
              -80.671599846228,
              24.93876366130269
            ],
            [
              -80.7254825228103,
              24.912402140625076
            ],
            [
              -80.73479966049898,
              24.90058360476262
            ],
            [
              -80.83255359250423,
              24.85149588420373
            ],
            [
              -80.80938350004561,
              24.941972236173942
            ],
            [
              -80.7348095243097,
              25.089026220492272
            ],
            [
              -80.46969782842052,
              25.088315965465473
            ]
          ]
        ],
        "type": "Polygon"
      },
      "properties": {
        "area_code": "2E",
        "area_name": "Southeastern Florida Bay",
        "broad_region": "Florida Bay / Cape Sable",
        "source_crs": "EPSG:26917"
      },
      "type": "Feature"
    },
    {
      "geometry": {
        "coordinates": [
          [
            [
              -80.7348095243097,
              25.089026220492272
            ],
            [
              -80.80938350004561,
              24.941972236173942
            ],
            [
              -80.83255359250423,
              24.85149588420373
            ],
            [
              -80.88751017113297,
              24.87300114964278
            ],
            [
              -80.93688713424334,
              24.91385816130558
            ],
            [
              -80.94969574622452,
              24.92715217858482
            ],
            [
              -80.9502921789193,
              25.089047189631028
            ],
            [
              -80.7348095243097,
              25.089026220492272
            ]
          ]
        ],
        "type": "Polygon"
      },
      "properties": {
        "area_code": "2W",
        "area_name": "Southwestern Florida Bay",
        "broad_region": "Florida Bay / Cape Sable",
        "source_crs": "EPSG:26917"
      },
      "type": "Feature"
    }
  ],
  "type": "FeatureCollection"
}